NORAD_CAT_ID,OBJECT_NAME,OBJECT_TYPE,EPOCH,MEAN_MOTION,ECCENTRICITY,INCLINATION,RA_OF_ASC_NODE,ARG_OF_PERICENTER,MEAN_ANOMALY,BSTAR,MEAN_MOTION_DOT,MEAN_MOTION_DDOT,TLE_LINE0,TLE_LINE1,TLE_LINE2,SEMIMAJOR_AXIS,PERIOD,APOGEE,PERIGEE,DECAYED
52001.0,STARLINK-3659,PAYLOAD,2023-01-27 03:41:19,15.08836178,0.0001214,53.2147,85.7271,117.2963,242.8153,0.00013798,1.909e-05,0.0,0 STARLINK-3659,1 52001U 22025AX  23027.15369935  .00001909  00000-0  13798-3 0  9994,2 52001  53.2147  85.7271 0001214 117.2963 242.8153 15.08836178 50725,6917.892,95.438,540.597,538.9169999999999,0.0
52001.0,STARLINK-3659,PAYLOAD,2023-01-27 08:27:28,15.08839151,0.0001175,53.215,84.8367,97.5332,262.5794,0.00014609,2.038e-05,0.0,0 STARLINK-3659,1 52001U 22025AX  23027.35241785  .00002038  00000-0  14609-3 0  9994,2 52001  53.2150  84.8367 0001175  97.5332 262.5794 15.08839151 49228,6917.883000000001,95.438,540.561,538.935,0.0
52001.0,STARLINK-3659,PAYLOAD,2023-01-27 21:10:34,15.08841997,0.0001223,53.2152,82.459,89.7892,270.3241,1.793e-06,-2.59e-06,0.0,0 STARLINK-3659,1 52001U 22025AX  23027.88233949 -.00000259  00000-0  17930-5 0  9991,2 52001  53.2152  82.4590 0001223  89.7892 270.3241 15.08841997 49304,6917.874,95.437,540.585,538.893,0.0
52001.0,STARLINK-3659,PAYLOAD,2023-01-28 09:53:39,15.08836241,0.000135,53.2146,80.0794,79.2755,280.8389,-5.9542e-05,-1.235e-05,0.0,0 STARLINK-3659,1 52001U 22025AX  23028.41226585 -.00001235  00000-0 -59542-4 0  9999,2 52001  53.2146  80.0794 0001350  79.2755 280.8389 15.08836241 50914,6917.892,95.438,540.691,538.823,0.0
52001.0,STARLINK-3659,PAYLOAD,2023-01-28 13:04:25,15.08836309,0.0001329,53.2143,79.4826,92.8107,267.3037,-2.0067e-05,-6.07e-06,0.0,0 STARLINK-3659,1 52001U 22025AX  23028.54474409 -.00000607  00000-0 -20067-4 0  9995,2 52001  53.2143  79.4826 0001329  92.8107 267.3037 15.08836309 49404,6917.892,95.438,540.676,538.837,0.0
52001.0,STARLINK-3659,PAYLOAD,2023-01-29 03:22:53,15.08836619,0.000135,53.2152,76.8036,111.4094,248.7043,7.4006e-05,8.9e-06,0.0,0 STARLINK-3659,1 52001U 22025AX  23029.14089896  .00000890  00000-0  74006-4 0  9998,2 52001  53.2152  76.8036 0001350 111.4094 248.7043 15.08836619 51020,6917.891,95.438,540.69,538.822,0.0
52001.0,STARLINK-3659,PAYLOAD,2023-01-29 09:44:25,15.08858948,0.0001653,53.2154,75.6154,120.3125,239.803,-0.00013539,-2.443e-05,0.0,0 STARLINK-3659,1 52001U 22025AX  23029.40584896 -.00002443  00000-0 -13539-3 0  9998,2 52001  53.2154  75.6154 0001653 120.3125 239.8030 15.08858948 51060,6917.822,95.436,540.831,538.544,0.0
52001.0,STARLINK-3659,PAYLOAD,2023-01-29 12:55:12,15.08843015,0.0001593,53.2159,75.0196,112.4631,247.653,0.00010884,1.445e-05,0.0,0 STARLINK-3659,1 52001U 22025AX  23029.53833378  .00001445  00000-0  10884-3 0  9993,2 52001  53.2159  75.0196 0001593 112.4631 247.6530 15.08843015 51085,6917.871,95.437,540.838,538.634,0.0
52001.0,STARLINK-3659,PAYLOAD,2023-01-30 03:13:41,15.08830411,0.0001521,53.2154,72.3437,100.4319,259.6845,4.3102e-05,3.98e-06,0.0,0 STARLINK-3659,1 52001U 22025AX  23030.13450481  .00000398  00000-0  43102-4 0  9997,2 52001  53.2154  72.3437 0001521 100.4319 259.6845 15.08830411 51177,6917.91,95.438,540.827,538.722,0.0
52001.0,STARLINK-3659,PAYLOAD,2023-01-30 09:35:13,15.08837315,0.0001439,53.2155,71.1554,97.297,262.8186,3.6078e-05,2.86e-06,0.0,0 STARLINK-3659,1 52001U 22025AX  23030.39946185  .00000286  00000-0  36078-4 0  9996,2 52001  53.2155  71.1554 0001439  97.2970 262.8186 15.08837315 49686,6917.889,95.438,540.749,538.758,0.0
52001.0,STARLINK-3659,PAYLOAD,2023-01-30 19:07:32,15.08834969,0.0001419,53.2151,69.3704,88.2162,271.8992,3.3594e-05,2.47e-06,0.0,0 STARLINK-3659,1 52001U 22025AX  23030.79690447  .00000247  00000-0  33594-4 0  9994,2 52001  53.2151  69.3704 0001419  88.2162 271.8992 15.08834969 49743,6917.896,95.438,540.742,538.779,0.0
52001.0,STARLINK-3659,PAYLOAD,2023-01-31 11:01:23,15.08842023,0.0001461,53.2156,66.3989,92.4108,267.7051,1.0346e-05,-1.23e-06,0.0,0 STARLINK-3659,1 52001U 22025AX  23031.45930204 -.00000123  00000-0  10346-4 0  9990,2 52001  53.2156  66.3989 0001461  92.4108 267.7051 15.08842023 51376,6917.874,95.437,540.75,538.729,0.0
52001.0,STARLINK-3659,PAYLOAD,2023-01-31 12:36:46,15.08840999,0.000155,53.2165,66.1001,91.7546,268.3623,-5.4343e-06,-3.74e-06,0.0,0 STARLINK-3659,1 52001U 22025AX  23031.52554346 -.00000374  00000-0 -54343-5 0  9992,2 52001  53.2165  66.1001 0001550  91.7546 268.3623 15.08840999 49858,6917.877,95.437,540.815,538.67,0.0
52001.0,STARLINK-3659,PAYLOAD,2023-01-31 18:58:19,15.0884348,0.0001531,53.2162,64.9111,95.3813,264.7354,-4.4012e-05,-9.88e-06,0.0,0 STARLINK-3659,1 52001U 22025AX  23031.79050261 -.00000988  00000-0 -44012-4 0  9990,2 52001  53.2162  64.9111 0001531  95.3813 264.7354 15.08843480 49892,6917.87,95.437,540.794,538.676,0.0
52001.0,STARLINK-3659,PAYLOAD,2023-02-01 09:16:47,15.08841074,0.0001569,53.2164,62.2349,97.017,263.1,5.292e-05,5.54e-06,0.0,0 STARLINK-3659,1 52001U 22025AX  23032.38666245  .00000554  00000-0  52920-4 0  9995,2 52001  53.2164  62.2349 0001569  97.0170 263.1000 15.08841074 49982,6917.877,95.437,540.828,538.657,0.0
52001.0,STARLINK-3659,PAYLOAD,2023-02-01 18:49:06,15.08835347,0.0001525,53.2166,60.4512,91.075,269.0417,3.6992e-05,3.01e-06,0.0,0 STARLINK-3659,1 52001U 22025AX  23032.78410745  .00000301  00000-0  36992-4 0  9992,2 52001  53.2166  60.4512 0001525  91.0750 269.0417 15.08835347 51577,6917.895,95.438,540.815,538.705,0.0
52001.0,STARLINK-3659,PAYLOAD,2023-02-02 09:07:35,15.08838518,0.0001415,53.2165,57.7742,92.2243,267.8911,7.4999e-07,-2.76e-06,0.0,0 STARLINK-3659,1 52001U 22025AX  23033.38026832 -.00000276  00000-0  74999-6 0  9992,2 52001  53.2165  57.7742 0001415  92.2243 267.8911 15.08838518 50137,6917.885,95.438,540.729,538.771,0.0
52001.0,STARLINK-3659,PAYLOAD,2023-02-03 01:01:26,15.08836479,0.0001414,53.2173,54.8012,88.8154,271.3,4.4458e-05,4.2e-06,0.0,0 STARLINK-3659,1 52001U 22025AX  23034.04266909  .00000420  00000-0  44458-4 0  9992,2 52001  53.2173  54.8012 0001414  88.8154 271.3000 15.08836479 51768,6917.891,95.438,540.734,538.778,0.0
52001.0,STARLINK-3659,PAYLOAD,2023-02-03 08:58:22,15.08838523,0.0001589,53.217,53.3144,93.7984,266.319,8.0335e-05,9.91e-06,0.0,0 STARLINK-3659,1 52001U 22025AX  23034.37386762  .00000991  00000-0  80335-4 0  9995,2 52001  53.2170  53.3144 0001589  93.7984 266.3190 15.08838523 50286,6917.885,95.438,540.849,538.651,0.0
52001.0,STARLINK-3659,PAYLOAD,2023-02-04 07:13:45,15.08845563,0.0001371,53.2161,49.1503,96.6576,263.4572,0.00010563,1.394e-05,0.0,0 STARLINK-3659,1 52001U 22025AX  23035.30122126  .00001394  00000-0  10563-3 0  9994,2 52001  53.2161  49.1503 0001371  96.6576 263.4572 15.08845563 51955,6917.863,95.437,540.677,538.78,0.0
52001.0,STARLINK-3659,PAYLOAD,2023-02-04 18:21:28,15.08837188,0.0001296,53.2157,47.0665,104.0696,256.044,3.7859e-05,3.15e-06,0.0,0 STARLINK-3659,1 52001U 22025AX  23035.76490782  .00000315  00000-0  37859-4 0  9990,2 52001  53.2157  47.0665 0001296 104.0696 256.0440 15.08837188 52024,6917.889,95.438,540.651,538.857,0.0
52001.0,STARLINK-3659,PAYLOAD,2023-02-05 07:04:33,15.08838447,0.0001322,53.2162,44.6904,90.8386,269.2758,7.845e-06,-1.63e-06,0.0,0 STARLINK-3659,1 52001U 22025AX  23036.29482961 -.00000163  00000-0  78450-5 0  9994,2 52001  53.2162  44.6904 0001322  90.8386 269.2758 15.08838447 50572,6917.885,95.438,540.665,538.836,0.0
52001.0,STARLINK-3659,PAYLOAD,2023-02-06 03:44:33,15.08844008,0.0001169,53.2159,40.8227,105.1231,254.989,-9.4643e-06,-4.38e-06,0.0,0 STARLINK-3659,1 52001U 22025AX  23037.15594565 -.00000438  00000-0 -94643-5 0  9992,2 52001  53.2159  40.8227 0001169 105.1231 254.9890 15.08844008 52235,6917.868,95.437,540.542,538.924,0.0
52001.0,STARLINK-3659,PAYLOAD,2023-02-06 05:19:56,15.08845442,0.0001189,53.2156,40.5257,97.9342,262.1785,1.3829e-05,-6.8e-07,0.0,0 STARLINK-3659,1 52001U 22025AX  23037.22218463 -.00000068  00000-0  13829-4 0  9994,2 52001  53.2156  40.5257 0001189  97.9342 262.1785 15.08845442 50713,6917.864,95.437,540.551,538.906,0.0
52001.0,STARLINK-3659,PAYLOAD,2023-02-07 08:21:29,15.08847389,0.0001231,53.2173,35.4734,98.2935,261.8197,0.00014092,1.956e-05,0.0,0 STARLINK-3659,1 52001U 22025AX  23038.34826036  .00001956  00000-0  14092-3 0  9997,2 52001  53.2173  35.4734 0001231  98.2935 261.8197 15.08847389 52419,6917.858,95.437,540.574,538.871,0.0
52001.0,STARLINK-3659,PAYLOAD,2023-02-08 03:26:08,15.0883862,0.0001379,53.2176,31.9049,92.891,267.224,3.1203e-05,2.09e-06,0.0,0 STARLINK-3659,1 52001U 22025AX  23039.14315050  .00000209  00000-0  31203-4 0  9999,2 52001  53.2176  31.9049 0001379  92.8910 267.2240 15.08838620 52538,6917.885,95.438,540.704,538.796,0.0
52001.0,STARLINK-3659,PAYLOAD,2023-02-08 09:47:39,15.08851223,0.0001341,53.2166,30.7122,99.8019,260.3125,0.00011498,1.543e-05,0.0,0 STARLINK-3659,1 52001U 22025AX  23039.40809902  .00001543  00000-0  11498-3 0  9997,2 52001  53.2166  30.7122 0001341  99.8019 260.3125 15.08851223 52576,6917.846,95.437,540.639,538.783,0.0
52001.0,STARLINK-3659,PAYLOAD,2023-02-09 03:16:55,15.08841418,0.0001561,53.2156,27.4393,83.5841,276.5329,-6.2899e-05,-1.289e-05,0.0,0 STARLINK-3659,1 52001U 22025AX  23040.13675329 -.00001289  00000-0 -62899-4 0  9994,2 52001  53.2156  27.4393 0001561  83.5841 276.5329 15.08841418 52687,6917.876,95.437,540.821,538.661,0.0
52001.0,STARLINK-3659,PAYLOAD,2023-02-09 08:03:04,15.08841607,0.000162,53.2159,26.5485,79.6605,280.4569,-3.3808e-05,-8.26e-06,0.0,0 STARLINK-3659,1 52001U 22025AX  23040.33546787 -.00000826  00000-0 -33808-4 0  9995,2 52001  53.2159  26.5485 0001620  79.6605 280.4569 15.08841607 51186,6917.875,95.437,540.861,538.62,0.0
52001.0,STARLINK-3659,PAYLOAD,2023-02-09 23:56:56,15.08833779,0.0001386,53.2158,23.5753,95.3598,264.7552,-0.00013607,-2.452e-05,0.0,0 STARLINK-3659,1 52001U 22025AX  23040.99787442 -.00002452  00000-0 -13607-3 0  9993,2 52001  53.2158  23.5753 0001386  95.3598 264.7552 15.08833779 51284,6917.899,95.438,540.723,538.806,0.0
